amadeus_name,tripadvisor_name,amadeus_code,tripadvisor_url,amadeus_address,tripadvisor_address,lat,lon
Blakely New York,The Blakely New York,WVNYCBLA,/Hotel_Review-g60763-d93445-Reviews-The_Blakely_New_York-New_York_City_New_York.html,"136 West, 55th Street","136 W 55th St, Bet. 6th & 7th Avenue, New York City, NY 10019-5305",40.76329,-73.97972
Gansevoort Park Avenue Nyc,Gansevoort Park Avenue NYC,GVNYC042,/Hotel_Review-g60763-d1456411-Reviews-Gansevoort_Park_Avenue_NYC-New_York_City_New_York.html,420 Park Avenue South,"420 Park Avenue South, New York City, NY 10016-8403",40.74392,-73.98415
Fairfield Inn N Stes Marriott,Fairfield Inn & Suites New York Manhattan/Chelsea,FNNYCTWF,/Hotel_Review-g60763-d1949647-Reviews-Fairfield_Inn_Suites_New_York_Manhattan_Chelsea-New_York_City_New_York.html,116 West 28th Street,"116 West 28th Street, New York City, NY 10001",40.7462,-73.99096
Park Lane Hotel New York Con,Park Lane Hotel,PHNYCHPL,/Hotel_Review-g60763-d93579-Reviews-Park_Lane_Hotel-New_York_City_New_York.html,36 Central Park South,"36 Central Park South, 59th Street Between 5th Ave & 6th Ave, New York City, NY 10019-1600",40.76482,-73.97532
Candlewood Suites Time Square,Candlewood Suites New York City Times Square,YONYC73E,/Hotel_Review-g60763-d1025779-Reviews-Candlewood_Suites_New_York_City_Times_Square-New_York_City_New_York.html,339 W. 39th Street,"339 W. 39th Street, New York City, NY 10018-1401",40.7558,-73.9923
Hilton Garden Inn Central Park South,Hilton Garden Inn New York/Central Park South-Midtown West,GINYC483,/Hotel_Review-g60763-d5786212-Reviews-Hilton_Garden_Inn_New_York_Central_Park_South_Midtown_West-New_York_City_New_York.html,237 West 54th Street,"237 West 54th Street, New York City, NY 10019-5589",40.76439,-73.9832
The Bowery Hotel,The Bowery Hotel,PWNYC383,/Hotel_Review-g60763-d634696-Reviews-The_Bowery_Hotel-New_York_City_New_York.html,335 Bowery At East 3rd Street,"335 Bowery, New York City, NY 10003-7138",40.72605,-73.99168
Gramercy Park Hotel,Gramercy Park Hotel,DSNYCGPH,/Hotel_Review-g60763-d571166-Reviews-Gramercy_Park_Hotel-New_York_City_New_York.html,2 Lexington Avenue,"2 Lexington Avenue, New York City, NY 10010-5487",40.73859,-73.98596
Hotel Mimosa,Hotel Mimosa,GDNYCMIM,/Hotel_Review-g60763-d1448670-Reviews-Hotel_Mimosa-New_York_City_New_York.html,79 Division St,"79 Division St, New York City, NY 10002-6201",40.71414,-73.99379
The Roger,The Roger,YXNYCROG,/Hotel_Review-g60763-d80110-Reviews-The_Roger-New_York_City_New_York.html,131 Madison Avenue,"131 Madison Ave, At 31st Street, New York City, NY 10016-7057",40.7458,-73.98433
The Whitby Hotel,The Whitby Hotel,DSNYCWHE,/Hotel_Review-g60763-d10846801-Reviews-The_Whitby_Hotel-New_York_City_New_York.html,18 West 56th Street,"18 W 56th St, New York City, NY 10019",40.76259,-73.97575
Comfort Inn Times Square West,Comfort Inn Times Square West,CIJFK464,/Hotel_Review-g60763-d1485603-Reviews-Comfort_Inn_Times_Square_West-New_York_City_New_York.html,343 West 44th Street,"343 W 44th St, New York City, NY 10036-5402",40.75906,-73.99007
Tryp By Wyndham Times Sq South,TRYP New York City Times Square South,WTNYCTMS,/Hotel_Review-g60763-d2253206-Reviews-TRYP_New_York_City_Times_Square_South-New_York_City_New_York.html,345 West 35th Street,"345 West 35th Street, Steps to Times Square, High-line, Etc, New York City, NY 10001-1701",40.75374,-73.99454
Mondrian Park Avenue,Mondrian Park Avenue,MRNYCSPA,/Hotel_Review-g60763-d12845266-Reviews-Mondrian_Park_Avenue-New_York_City_New_York.html,444 Park Avenue South,"444 Park Avenue South, New York City, NY 10016",40.74477,-73.98317
Best Western Plus Hospitality,Best Western Plus Hospitality House,BWNYC114,/Hotel_Review-g60763-d80087-Reviews-Best_Western_Plus_Hospitality_House-New_York_City_New_York.html,145 East 49th Street,"145 E 49th St, New York City, NY 10017-1210",40.75618,-73.97362
Walker Hotel Greenwich Village,Walker Hotel Greenwich Village,YXNYC467,/Hotel_Review-g60763-d3522780-Reviews-Walker_Hotel_Greenwich_Village-New_York_City_New_York.html,52 West 13th Street,"52 W 13th St, New York City, NY 10011-7902",40.73605,-73.99598
The Manhattan Club,The Manhattan Club,XTNYC720,/Hotel_Review-g60763-d99321-Reviews-The_Manhattan_Club-New_York_City_New_York.html,200 West 56th Street,"200 West 56th Street, New York City, NY 10019-4300",40.76488,-73.98072
Avalon Hotel,Avalon Hotel,YXGOTAVA,/Hotel_Review-g60763-d99387-Reviews-Avalon_Hotel-New_York_City_New_York.html,Kungstorget 9,"16 East 32nd Street, New York City, NY 10016-5402",57.70397,11.96823
Hgi New York Manhattan Chelsea,Hilton Garden Inn New York/Manhattan-Chelsea,GILGA212,/Hotel_Review-g60763-d641209-Reviews-Hilton_Garden_Inn_New_York_Manhattan_Chelsea-New_York_City_New_York.html,121 West 28th Street,"121 West 28th Street, New York City, NY 10001-6102",40.74642,-73.99151
Dream Midtown,Dream Midtown,DZNYCDNY,/Hotel_Review-g60763-d75688-Reviews-Dream_Midtown-New_York_City_New_York.html,210 West 55th Street,"210 W 55th St, New York City, NY 10019-5467",40.76446,-73.98166
Four Points Soho Village,Four Points by Sheraton Manhattan SoHo Village,SINYC537,/Hotel_Review-g60763-d1157456-Reviews-Four_Points_by_Sheraton_Manhattan_SoHo_Village-New_York_City_New_York.html,66 Charlton Street,"66 Charlton St, New York City, NY 10014-4601",40.72721,-74.00604
Marmara Manhattan Hotel,The Marmara Manhattan,YXNYC506,/Hotel_Review-g60763-d121998-Reviews-The_Marmara_Manhattan-New_York_City_New_York.html,301 East 94th Street,"301 East 94th Street, New York City, NY 10128-4718",40.78289,-73.94754
Aka Wall Street,AKA Wall Street,PHNYCWSH,/Hotel_Review-g60763-d10039979-Reviews-AKA_Wall_Street-New_York_City_New_York.html,84 William Street,"84 William St, New York, NY, New York City, NY 10038-4601",40.70798,-74.00771
Gansevoort Meatpacking Nyc,Gansevoort Meatpacking NYC,GVNYC707,/Hotel_Review-g60763-d287626-Reviews-Gansevoort_Meatpacking_NYC-New_York_City_New_York.html,18 Ninth Avenue,"18 9th Avenue, at 13th Street, New York City, NY 10014-1202",40.73354,-74.01031
James Nomad Formerly Carlton,The James New York-NoMad,NYNYCTJN,/Hotel_Review-g60763-d12197432-Reviews-The_James_New_York_NoMad-New_York_City_New_York.html,22 East 29th Street,"22 East 29th Street, New York City, NY 10016",40.74463,-73.98524
Life Hotel Nomad- 5th Ave,Life Hotel,LVNYCCLI,/Hotel_Review-g60763-d93452-Reviews-Life_Hotel-New_York_City_New_York.html,19 West 31 Street,"19 West 31st Street, Off Fifth Ave, New York City, NY 10001-4402",40.74722,-73.98699
Broadway At Times Square Hotel,Broadway at Times Square Hotel,IQNYC041,/Hotel_Review-g60763-d112021-Reviews-Broadway_at_Times_Square_Hotel-New_York_City_New_York.html,129 West 46th Street,"129 West 46th Street, New York City, NY 10036-8502",40.75813,-73.98343
"Club Quarters, Midtown","Club Quarters Hotel, Midtown",CQNYC558,/Hotel_Review-g60763-d223021-Reviews-Club_Quarters_Hotel_Midtown-New_York_City_New_York.html,40 West 45th Street,"40 W 45th St, New York City, NY 10036-4261",40.75587,-73.98084
Hilton Garden Inn Newyork Manhattan,Hilton Garden Inn New York/Manhattan-Midtown East,GILGA963,/Hotel_Review-g60763-d5960548-Reviews-Hilton_Garden_Inn_New_York_Manhattan_Midtown_East-New_York_City_New_York.html,210 East 52nd Street,"206 E 52nd St, New York City, NY 10022-6201",40.75663,-73.96938
Wingate By Wyndham Manhattan M,Wingate by Wyndham Manhattan Midtown,WGLGA451,/Hotel_Review-g60763-d620040-Reviews-Wingate_by_Wyndham_Manhattan_Midtown-New_York_City_New_York.html,235 West 35th Street,"235 W 35th St, New York City, NY 10001-1901",40.75213,-73.99111
La Quinta Inn Ste New York City Central,La Quinta Inn & Suites New York City Central Park,LQNYC871,/Hotel_Review-g60763-d99447-Reviews-La_Quinta_Inn_Suites_New_York_City_Central_Park-New_York_City_New_York.html,31 West 71st Street,"31 W 71st St, New York City, NY 10023-4101",40.77626,-73.97762
The Plaza,The Plaza,FANYC100,/Hotel_Review-g60763-d675616-Reviews-The_Plaza-New_York_City_New_York.html,5th Avenue At 59th Street,"Fifth Avenue at Central Park South, New York City, NY 10019",40.7643,-73.9729
The Marlton Hotel,The Marlton Hotel,IQNYCUSM,/Hotel_Review-g60763-d4972409-Reviews-The_Marlton_Hotel-New_York_City_New_York.html,5 West 8th Street,"5 W 8th St, New York City, NY 10011-9099",40.73243,-73.99665
The Gallivant Times Square,The Gallivant Times Square,YXNYC084,/Hotel_Review-g60763-d75711-Reviews-The_Gallivant_Times_Square-New_York_City_New_York.html,234 48th Street,"234 West 48th Street, New York City, NY 10036-1540",40.76053,-73.98639
Element Times Square,Element New York Times Square West,ELNYC361,/Hotel_Review-g60763-d1852917-Reviews-Element_New_York_Times_Square_West-New_York_City_New_York.html,311 West 39th Street,"311 West 39th Street, Between 8th and 9th, New York City, NY 10018-1401",40.7561,-73.992
The Pierre - A Taj Hotel,"The Pierre, A Taj Hotel, New York",TJNYC709,/Hotel_Review-g60763-d93603-Reviews-The_Pierre_A_Taj_Hotel_New_York-New_York_City_New_York.html,2 East 61st Street,"2 East 61st Street at Fifth Avenue, New York City, NY 10065",40.76541,-73.97197
Doubletree By Hilton Nyc Chelsea,Doubletree Hotel Chelsea - New York City,DTLGA100,/Hotel_Review-g60763-d1214829-Reviews-Doubletree_Hotel_Chelsea_New_York_City-New_York_City_New_York.html,128 West 29th Street,"128 West 29th Street, New York City, NY 10001-5301",40.747,-73.99087
The High Line Hotel,The High Line Hotel,YXNYC575,/Hotel_Review-g60763-d4283443-Reviews-The_High_Line_Hotel-New_York_City_New_York.html,180 Tenth Avenue,"180 10th Ave, at 20th Street, New York City, NY 10011-4707",40.74597,-74.0049
Stewart Hotel,Stewart Hotel,XTNYC600,/Hotel_Review-g60763-d93562-Reviews-Stewart_Hotel-New_York_City_New_York.html,371 Seventh Ave,"371 Seventh Ave, New York City, NY 10001-3984",40.74875,-73.99163
Four Points Midtown Times Sqre,Four Points by Sheraton Midtown - Times Square,SINYC713,/Hotel_Review-g60763-d1464151-Reviews-Four_Points_by_Sheraton_Midtown_Times_Square-New_York_City_New_York.html,326 West 40th Street,"326 W 40th St, New York City, NY 10018-1404",40.7564,-73.9919
Flatiron Hotel,Flatiron Hotel,YXNYCTFH,/Hotel_Review-g60763-d1563892-Reviews-Flatiron_Hotel-New_York_City_New_York.html,9 West 26th Street,"9 W 26th St, New York City, NY 10010-1003",40.74377,-73.98882
W Hotel New York,W New York,WHNYC502,/Hotel_Review-g60763-d112066-Reviews-W_New_York-New_York_City_New_York.html,541 Lexington Avenue,"541 Lexington Avenue, between 49th St and 50th St, New York City, NY 10022-7503",40.7561,-73.9725
6 Columbus A Sixty Hotel,6 Columbus - A SIXTY Hotel,SKNYCWPK,/Hotel_Review-g60763-d93383-Reviews-6_Columbus_A_SIXTY_Hotel-New_York_City_New_York.html,308 W 58th Street,"308 W 58th St, New York City, NY 10019-1804",40.76749,-73.9832
Washington Square Hotel,Washington Square Hotel,YXNYCWAS,/Hotel_Review-g60763-d93382-Reviews-Washington_Square_Hotel-New_York_City_New_York.html,103 Waverly Place,"103 Waverly Place, New York City, NY 10011-9194",40.73252,-73.99867
Renaissance New York Hotel 57,Renaissance New York Hotel 57,BRNYCBRB,/Hotel_Review-g60763-d575732-Reviews-Renaissance_New_York_Hotel_57-New_York_City_New_York.html,130 East 57th St,"130 E 57th St, New York City, NY 10022-2726",40.76104,-73.96941
Hilton Gi New York Times Square South,Hilton Garden Inn New York Times Square South,GINYC302,/Hotel_Review-g60763-d12199886-Reviews-Hilton_Garden_Inn_New_York_Times_Square_South-New_York_City_New_York.html,326 West 37th Street,"326 West 37th Street, New York City, NY 10018",40.75448,-73.9936
Fairfield Inn Marriott 5th Ave,Fairfield Inn & Suites New York Manhattan/Fifth Avenue,FNNYCTMF,/Hotel_Review-g60763-d1486164-Reviews-Fairfield_Inn_Suites_New_York_Manhattan_Fifth_Avenue-New_York_City_New_York.html,21 West 37th Street,"21 West 37th Street, New York City, NY 10018",40.75106,-73.98448
The Surrey,The Surrey,WBNYC700,/Hotel_Review-g60763-d93566-Reviews-The_Surrey-New_York_City_New_York.html,20 East 76th Street,"20 East 76th Street, New York City, NY 10021-2643",40.77431,-73.96402
Hotel Boutique Grand Central,Hotel Boutique At Grand Central,YXNYCBGR,/Hotel_Review-g60763-d4446427-Reviews-Hotel_Boutique_At_Grand_Central-New_York_City_New_York.html,447 Lexington Ave,"447 Lexington Ave, 128 East 45th Street, New York City, NY 10017-3908",40.75298,-73.97461
Comfort Inn Midtown West,Comfort Inn Midtown West,CINYC548,/Hotel_Review-g60763-d3502291-Reviews-Comfort_Inn_Midtown_West-New_York_City_New_York.html,548 West 48th Street,"548 W 48th St, New York City, NY 10036-1102",40.76413,-73.99496
Courtyard Central Prk Marriott,Courtyard by Marriott New York Manhattan/Central Park,CYNYCPKC,/Hotel_Review-g60763-d5039852-Reviews-Courtyard_by_Marriott_New_York_Manhattan_Central_Park-New_York_City_New_York.html,1717 Broadway,"1717 Broadway, New York City, NY 10019",40.76435,-73.98228
Hotel Hugo,Hotel Hugo,XTNYCHGO,/Hotel_Review-g60763-d6219365-Reviews-Hotel_Hugo-New_York_City_New_York.html,525 Greenwich Street,"525 Greenwich St, New York City, NY 10013-1002",40.72643,-74.00896
The Hotel At Times Square,The Hotel at Times Square,IQNYC017,/Hotel_Review-g60763-d249711-Reviews-The_Hotel_at_Times_Square-New_York_City_New_York.html,59 West 46th Street,"59 West 46th Street, New York City, NY 10036-4120",40.75736,-73.98112
Hotel 91,The Hotel 91,WVNYC836,/Hotel_Review-g60763-d1048678-Reviews-The_Hotel_91-New_York_City_New_York.html,91 E Broadway,"91 E Broadway, New York City, NY 10002-7014",40.7134,-73.99361
Courtyard Midtown E Marriott,Courtyard New York Manhattan/Midtown East,CYNYCMEC,/Hotel_Review-g60763-d99371-Reviews-Courtyard_New_York_Manhattan_Midtown_East-New_York_City_New_York.html,866 Third Avenue,"866 3rd Avenue, New York City, NY 10022-6221",40.75727,-73.96965
Holiday Inn Nyc Times Sqr,Holiday Inn New York City - Times Square,HINYCD35,/Hotel_Review-g60763-d7737096-Reviews-Holiday_Inn_New_York_City_Times_Square-New_York_City_New_York.html,585 8th Avenue,"585 8th Ave, New York City, NY 10018-3003",40.75526,-73.99172
Hgu New York,HGU New York,WVNYC208,/Hotel_Review-g60763-d122015-Reviews-HGU_New_York-New_York_City_New_York.html,34 E 32nd St,"34 E 32nd St, New York City, NY 10016-5503",40.746,-73.98332
Hyatt Herald Square New York,Hyatt Herald Square New York,HYNYCHHH,/Hotel_Review-g60763-d1940859-Reviews-Hyatt_Herald_Square_New_York-New_York_City_New_York.html,30-32 West 31st Street,"30 W 31st Street, New York City, NY 10001",40.747,-73.98763
Fairfield Inn N Stes Marriott,Fairfield Inn & Suites New York Manhattan/Times Square,FNNYCFIF,/Hotel_Review-g60763-d1390172-Reviews-Fairfield_Inn_Suites_New_York_Manhattan_Times_Square-New_York_City_New_York.html,330 West 40th Street,"330 West 40th Street, Between 8th Ave. & 9th Ave., New York City, NY 10018",40.75631,-73.99159
Staybridge Stes Time Square Ma,Staybridge Suites Times Square - New York City,YZNYC930,/Hotel_Review-g60763-d1465162-Reviews-Staybridge_Suites_Times_Square_New_York_City-New_York_City_New_York.html,340 West 40th Street,"340 West 40th Street, New York City, NY 10018-1404",40.75643,-73.99187
Hampton Inn Manhattan Times Sq North,Hampton Inn Manhattan-Times Square North,HXNYC851,/Hotel_Review-g60763-d93457-Reviews-Hampton_Inn_Manhattan_Times_Square_North-New_York_City_New_York.html,851 Eighth Avenue,"851 Eighth Avenue, New York City, NY 10019-6237",40.76297,-73.98566
Hyatt House New York Chelsea,Hyatt House New York/Chelsea,HYNYCNHR,/Hotel_Review-g60763-d10390915-Reviews-Hyatt_House_New_York_Chelsea-New_York_City_New_York.html,815 Avenue Of The Americas,"815 Avenue of the Americas, New York City, NY 10001",40.74628,-73.9907
Courtyard Times Sq Marriott,Courtyard New York Manhattan/Times Square,CYNYCMDC,/Hotel_Review-g60763-d99368-Reviews-Courtyard_New_York_Manhattan_Times_Square-New_York_City_New_York.html,114 W 40th St,"114 W 40th St, New York City, NY 10018-2699",40.75386,-73.98578
Heritage Hotel New York City,Heritage Hotel New York City,YXNYC329,/Hotel_Review-g60763-d93401-Reviews-Heritage_Hotel_New_York_City-New_York_City_New_York.html,18 W. 25th St.,"18 W 25th St, at 5th Avenue, New York City, NY 10010-2703",40.74331,-73.99003
Broadway Plaza Hotel,Broadway Plaza Hotel,GDNYCBRO,/Hotel_Review-g60763-d223019-Reviews-Broadway_Plaza_Hotel-New_York_City_New_York.html,1155 Broadway,"1155 Broadway, New York City, NY 10001-7516",40.74439,-73.98891
Hotel 32 32,Hotel 32 32,GDNYCH32,/Hotel_Review-g60763-d6733290-Reviews-Hotel_32_32-New_York_City_New_York.html,32 E 32nd Street,"32 E 32nd St, New York City, NY 10016",40.74628,-73.98341
Holiday Inn Manhattan East,Holiday Inn NYC - Lower East Side,HINYCE8C,/Hotel_Review-g60763-d3236642-Reviews-Holiday_Inn_NYC_Lower_East_Side-New_York_City_New_York.html,150 Delancey Street,"150 Delancey Street, New York City, NY 10002-3308",40.7183,-73.98623
Hotel Giraffe By Library Hotel,Hotel Giraffe by Library Hotel Collection,XTNYCGIR,/Hotel_Review-g60763-d99762-Reviews-Hotel_Giraffe_by_Library_Hotel_Collection-New_York_City_New_York.html,365 Park Ave S,"365 Park Ave South, At 26th Street, New York City, NY 10016-8801",40.75858,-73.96805
Hotel Metro,Hotel Metro,WVNYCMET,/Hotel_Review-g60763-d99392-Reviews-Hotel_Metro-New_York_City_New_York.html,45 W. 35th Street,"45 W 35th St, New York City, NY 10001-2277",40.74975,-73.98551
Fitzpatrick Grand Centralhotel,Fitzpatrick Grand Central Hotel,YXNYCFIT,/Hotel_Review-g60763-d99327-Reviews-Fitzpatrick_Grand_Central_Hotel-New_York_City_New_York.html,141 East 44th Street,"141 East 44th Street, New York City, NY 10017-4006",40.75242,-73.97448
The Evelyn,The Evelyn,BTNYCGER,/Hotel_Review-g60763-d99389-Reviews-The_Evelyn-New_York_City_New_York.html,7 East 27th Street,"7 East 27th Street, New York City, NY 10016-8701",40.74398,-73.98698
Hotel Belleclair,Hotel Belleclaire,BTNYCBLC,/Hotel_Review-g60763-d93390-Reviews-Hotel_Belleclaire-New_York_City_New_York.html,250 W 77th Street,"250 West 77th Street, New York City, NY 10024-6810",40.78255,-73.98111
The Sherry Netherland Lvx,The Sherry-Netherland Hotel,PHNYCSNH,/Hotel_Review-g60763-d93559-Reviews-The_Sherry_Netherland_Hotel-New_York_City_New_York.html,781 Fifth Avenue,"781 Fifth Avenue, At 59th Street, New York City, NY 10022-1092",40.76433,-73.97252
Pod 39 Hotel,Pod 39 Hotel,OKNYCP39,/Hotel_Review-g60763-d3235844-Reviews-Pod_39_Hotel-New_York_City_New_York.html,145 East 39th Street,"145 E 39th Street, New York City, NY 10016-0913",40.74939,-73.97695
Hotel Americano,Hotel Americano,DSNYCHAM,/Hotel_Review-g60763-d2151571-Reviews-Hotel_Americano-New_York_City_New_York.html,518 West 27th Street,"518 W 27th St, New York City, NY 10001-5506",40.75043,-74.00284
The Benjamin,The Benjamin,NYNYC105,/Hotel_Review-g60763-d217626-Reviews-The_Benjamin-New_York_City_New_York.html,125 East 50th Street,"125 East 50th Street, at Lexington Avenue, New York City, NY 10022-9501",40.75624,-73.97207
"Hotel Henri, A Wyndham Hotel","Hotel Henri, A Wyndham Hotel",WYNYC998,/Hotel_Review-g60763-d12076837-Reviews-Hotel_Henri_A_Wyndham_Hotel-New_York_City_New_York.html,37 West 24th Street,"37 West 24th street, New York City, NY 10010",40.74326,-73.99106
Night Hotel Times Square,Night Times Square,DZNYCSHN,/Hotel_Review-g60763-d93376-Reviews-Night_Times_Square-New_York_City_New_York.html,157 West 47th Street,"157 West 47th Street, (between 6th & 7th Avenues), New York City, NY 10036-1503",40.75907,-73.9837
Crosby Street Hotel,Crosby Street Hotel,DSNYCCSH,/Hotel_Review-g60763-d1572980-Reviews-Crosby_Street_Hotel-New_York_City_New_York.html,79 Crosby Street,"79 Crosby Street, New York City, NY 10012",40.72299,-73.99741
Off Soho Suites Hotel,Off Soho Suites,UINYCOSG,/Hotel_Review-g60763-d93374-Reviews-Off_Soho_Suites-New_York_City_New_York.html,11 Rivington Street,"11 Rivington Street, New York City, NY 10002-1244",40.7215,-73.99312
Best Western Premier Herald Sq,Best Western Premier Herald Square,BWNYC152,/Hotel_Review-g60763-d3973287-Reviews-Best_Western_Premier_Herald_Square-New_York_City_New_York.html,48 W 36th St,"50 W 36th Street, New York City, NY 10018",40.75036,-73.98526
Ace Hotel Nyc,Ace Hotel New York,YXNYCAHN,/Hotel_Review-g60763-d1201072-Reviews-Ace_Hotel_New_York-New_York_City_New_York.html,20 West 29th Street,"20 West 29th Street, at Broadway, New York City, NY 10001-4502",40.74584,-73.98811
Hampton Inn Manhattan Grand Central,Hampton Inn Manhattan Grand Central,HXNYC897,/Hotel_Review-g60763-d3572587-Reviews-Hampton_Inn_Manhattan_Grand_Central-New_York_City_New_York.html,231 East 43rd Street,"231 E 43rd St, New York City, NY 10017-4701",40.75095,-73.97217
The Inn At Irving Place,The Inn at Irving Place,UILGAIIP,/Hotel_Review-g60763-d93581-Reviews-The_Inn_at_Irving_Place-New_York_City_New_York.html,56 Irving Place,"56 Irving Pl, New York City, NY 10003-2314",40.73596,-73.98696
Ameritania Hotel,Ameritania Hotel,WWNYCAME,/Hotel_Review-g60763-d99332-Reviews-Ameritania_Hotel-New_York_City_New_York.html,230 West 54th Street,"230 West 54th Street, New York City, NY 10019-5594",40.76408,-73.98269
Moxy By Marriott Nyc Times Sq,Moxy NYC Times Square,OXNYCOXO,/Hotel_Review-g60763-d12301470-Reviews-Moxy_NYC_Times_Square-New_York_City_New_York.html,485 7th Avenue,"485 7th Avenue, New York City, NY 10018",40.75246,-73.98949
Econo Lodge Times Square,Econo Lodge Times Square,EONYC318,/Hotel_Review-g60763-d93359-Reviews-Econo_Lodge_Times_Square-New_York_City_New_York.html,302 West 47th Street,"302 West 47th Street, New York City, NY 10036",40.76046,-73.98754
Hampton Inn Manhattan Times Sq South,Hampton Inn Manhattan/Times Square South,HXNYC337,/Hotel_Review-g60763-d1500405-Reviews-Hampton_Inn_Manhattan_Times_Square_South-New_York_City_New_York.html,337 West 39th Street,"337 West 39th Street, New York City, NY 10018-1401",40.75633,-73.99303
La Quinta Inn Ste Manhattan,La Quinta Inn & Suites Manhattan,LQNYC751,/Hotel_Review-g60763-d99774-Reviews-La_Quinta_Inn_Suites_Manhattan-New_York_City_New_York.html,17 West 32nd Street,"17 West 32nd St, New York City, NY 10001-3820",40.74809,-73.98756
Comfort Inn Times Square South Area,Comfort Inn Times Square South,CINYC325,/Hotel_Review-g60763-d673077-Reviews-Comfort_Inn_Times_Square_South-New_York_City_New_York.html,305 West 39th Street,"305 W 39th St, (39th St and 8th Ave), New York City, NY 10018-1401",40.75555,-73.99178
Hyatt Place New York Midtown South,Hyatt Place New York Midtown South,HYNYCSIM,/Hotel_Review-g60763-d2554351-Reviews-Hyatt_Place_New_York_Midtown_South-New_York_City_New_York.html,52 West 36th Street,"52 W 36th St # 54, New York City, NY 10018-8029",40.7504,-73.98582
Crowne Plaza Midtown Manhattan,Crowne Plaza HY36 Midtown Manhattan,CPNYC0DD,/Hotel_Review-g60763-d11854022-Reviews-Crowne_Plaza_HY36_Midtown_Manhattan-New_York_City_New_York.html,320 West 36th Street,"320 W 36th St, New York City, NY 10018",40.75374,-73.99374
Hotel Elysee By Library Hotel,Hotel Elysee by Library Hotel Collection,XTNYC801,/Hotel_Review-g60763-d93340-Reviews-Hotel_Elysee_by_Library_Hotel_Collection-New_York_City_New_York.html,60 East 54th Street,"60 E. 54th St., New York City, NY 10022-4642",40.75858,-73.96805
"The Beekman, A Thompson Hotel","The Beekman, A Thompson Hotel",TMNYCBEE,/Hotel_Review-g60763-d8615610-Reviews-The_Beekman_A_Thompson_Hotel-New_York_City_New_York.html,123 Nassau Street,"123 Nassau St, New York City, NY 10038-2415",40.71135,-74.00668
Four Seasons New York Downtown,Four Seasons Hotel New York Downtown,FSNYC009,/Hotel_Review-g60763-d10330604-Reviews-Four_Seasons_Hotel_New_York_Downtown-New_York_City_New_York.html,27 Barclay Street,"27 Barclay Street, New York City, NY 10007",40.71249,-74.00905
French Quarters Guest Apt,The French Quarters Guest Apartments,HONYCFQG,/Hotel_Review-g60763-d1415127-Reviews-The_French_Quarters_Guest_Apartments-New_York_City_New_York.html,346 West 46th Street,"346 W. 46th Street, New York City, NY 10036-3881",40.76032,-73.98978
1 Hotel Central Park,1 Hotel Central Park,BINYCHOT,/Hotel_Review-g60763-d6883205-Reviews-1_Hotel_Central_Park-New_York_City_New_York.html,1414 Avenue Of The Americas,"1414 Avenue of the Americas, New York City, NY 10019-2514",40.76476,-73.97681
Park Hyatt New York,Park Hyatt New York,HYNYCPNY,/Hotel_Review-g60763-d6582176-Reviews-Park_Hyatt_New_York-New_York_City_New_York.html,153 West 57th Street,"153 West 57th Street, New York City, NY 10019-2214",40.76538,-73.97896
Even Hotel Midtown East,EVEN Hotel New York - Midtown East,VNNYC5D0,/Hotel_Review-g60763-d10131859-Reviews-EVEN_Hotel_New_York_Midtown_East-New_York_City_New_York.html,219 East 44th Street,"219 E 44th St, New York City, NY 10017-4305",40.75183,-73.97237
The Ritz-carlton Central Park,"The Ritz-Carlton New York, Central Park",RZNYCCPZ,/Hotel_Review-g60763-d224224-Reviews-The_Ritz_Carlton_New_York_Central_Park-New_York_City_New_York.html,50 Central Park South,"50 Central Park South, New York City, NY 10019-1613",40.7673,-73.98009
The Lex Nyc,The Lex NYC,PWNYC087,/Hotel_Review-g60763-d6201200-Reviews-The_Lex_NYC-New_York_City_New_York.html,67 Lexington Ave,"67 Lexington Ave, New York City, NY 10010-1833",40.74094,-73.98335
Residence Inn Midtown Marriott,Residence Inn New York Manhattan / Midtown East,RCNYCHAR,/Hotel_Review-g60763-d3583686-Reviews-Residence_Inn_New_York_Manhattan_Midtown_East-New_York_City_New_York.html,148 East 48th Street,"148 East 48th Street, New York City, NY 10017",40.75502,-73.97286
San Carlos Hotel,San Carlos Hotel,UINYCSCH,/Hotel_Review-g60763-d80112-Reviews-San_Carlos_Hotel-New_York_City_New_York.html,150 East 50th Street,"150 East 50th Street, New York City, NY 10022-9500",40.75621,-73.9718
Cambria Hotel Ny Chelsea,Cambria hotel & suites New York - Chelsea,EZNYC537,/Hotel_Review-g60763-d7130807-Reviews-Cambria_hotel_suites_New_York_Chelsea-New_York_City_New_York.html,123 W 28th Street,"123 W 28th Street, New York City, NY 10001-6120",40.74673,-73.99157
The New York Edition,The New York EDITION,EBNYCEBE,/Hotel_Review-g60763-d7787303-Reviews-The_New_York_EDITION-New_York_City_New_York.html,5 Madison Avenue,"5 Madison Ave, New York City, NY 10010-3678",40.7412,-73.98773
Hyatt Centric Times Square New York,Hyatt Centric Times Square New York,HYNYCTSQ,/Hotel_Review-g60763-d4799063-Reviews-Hyatt_Centric_Times_Square_New_York-New_York_City_New_York.html,135 W 45th St,"135 West 45th Street, New York City, NY 10036-4004",40.75757,-73.98403
The Nomad Hotel,The NoMad Hotel,WVNYC380,/Hotel_Review-g60763-d2643161-Reviews-The_NoMad_Hotel-New_York_City_New_York.html,1170 Broadway,"1170 Broadway uf hfhdj, New York City, NY 10001-7507",40.74499,-73.98873
The Peninsula New York,The Peninsula New York,PNNYC772,/Hotel_Review-g60763-d113311-Reviews-The_Peninsula_New_York-New_York_City_New_York.html,700 Fifth Avenue At 55th St,"700 Fifth Avenue at 55th Street, New York City, NY 10019",40.76724,-73.98844
Park South Hotel,Park South Hotel,YXNYCPSH,/Hotel_Review-g60763-d225942-Reviews-Park_South_Hotel-New_York_City_New_York.html,124 East 28th Street,"124 East 28th Street, New York City, NY 10016-8402",40.74278,-73.9829
Homewood New York Manhattan Times Square,"Homewood Suites by Hilton New York/Midtown Manhattan Times Square-South, NY",HGNYC454,/Hotel_Review-g60763-d5040757-Reviews-Homewood_Suites_by_Hilton_New_York_Midtown_Manhattan_Times_Square_South_NY-New_York_Cit.html,312 West 37th Street,"312 West 37th Street, New York City, NY 10018-4208",40.75427,-73.99308
Arlo Nomad,Arlo NoMad,CKNYCTOM,/Hotel_Review-g60763-d10541730-Reviews-Arlo_NoMad-New_York_City_New_York.html,11 E 31st Street,"11 E 31st St, New York City, NY 10016-6701",40.74636,-73.98495
Fitzpatrick Manhattan Hotel,Fitzpatrick Manhattan Hotel,YXNYCFMH,/Hotel_Review-g60763-d113309-Reviews-Fitzpatrick_Manhattan_Hotel-New_York_City_New_York.html,687 Lexington Avenue,"687 Lexington Ave, between 56th & 57th Street, New York City, NY 10022-2662",40.76057,-73.96948
The Bernic Hotel,The Bernic Hotel,WVNYC826,/Hotel_Review-g60763-d8776490-Reviews-The_Bernic_Hotel-New_York_City_New_York.html,145 East 47th Street,"145 E 47th St, New York City, NY 10017-2007",40.75441,-73.97313
Mandarin Oriental New York,"Mandarin Oriental, New York",MONYCMO1,/Hotel_Review-g60763-d281071-Reviews-Mandarin_Oriental_New_York-New_York_City_New_York.html,80  Columbus Circle At 60th Street,"80 Columbus Circle at 60th Street, New York City, NY 10023-5800",40.76901,-73.98293
Chelsea Pines Inn,Chelsea Pines Inn,YXJFK102,/Hotel_Review-g60763-d122020-Reviews-Chelsea_Pines_Inn-New_York_City_New_York.html,317 West 14th Street,"317 West 14th Street, New York City, NY 10014-5015",40.74042,-74.00333
Hotel Pennsylvania,Hotel Pennsylvania New York,YXNYCNHP,/Hotel_Review-g60763-d214197-Reviews-Hotel_Pennsylvania_New_York-New_York_City_New_York.html,401 Seventh Avenue At 33rd Street,"401 Seventh Avenue at 33rd Street, New York City, NY 10001",40.74969,-73.99055
Hotel 31,Hotel 31,YXNYC068,/Hotel_Review-g60763-d126257-Reviews-Hotel_31-New_York_City_New_York.html,120 East 31st Street,"120 East 31 Street, New York City, NY 10016-6809",40.74469,-73.98161
Royal Park Hotel And Hostel,Royal Park Hotel,WVNYC624,/Hotel_Review-g60763-d1155229-Reviews-Royal_Park_Hotel-New_York_City_New_York.html,258 W 97th Street,"258 West 97th Street, New York City, NY 10025-6218",40.79553,-73.97189
Chelsea Savoy Hotel,Chelsea Savoy Hotel,WVNYC254,/Hotel_Review-g60763-d112019-Reviews-Chelsea_Savoy_Hotel-New_York_City_New_York.html,204 West 23rd Street,"204 W 23rd St, New York City, NY 10011-2301",40.74398,-73.99608
Seton Hotel,Seton Hotel,YXNYCHSE,/Hotel_Review-g60763-d121991-Reviews-Seton_Hotel-New_York_City_New_York.html,144 East 40th Street,"144 East 40th Street, New York City, NY 10016-1762",40.74996,-73.97663
Comfort Inn Manhattan Bridge,Comfort Inn Manhattan Bridge,CINYC355,/Hotel_Review-g60763-d1383001-Reviews-Comfort_Inn_Manhattan_Bridge-New_York_City_New_York.html,61-63 Chrystie Street,"61 - 63 Chrystie Street, New York City, NY 10002",40.7168,-73.99449
Marrakech Hotel Nyc,Marrakech Hotel,WVNYC619,/Hotel_Review-g60763-d113343-Reviews-Marrakech_Hotel-New_York_City_New_York.html,2688 Broadway,"2688 Broadway, New York City, NY 10025-4411",40.79876,-73.96827
Clarion Hotel Park Avenue,Clarion Hotel Park Avenue,CCNYC222,/Hotel_Review-g60763-d224217-Reviews-Clarion_Hotel_Park_Avenue-New_York_City_New_York.html,429 Park Avenue South,"429 Park Ave S, New York City, NY 10016-8002",40.7441,-73.98334
Amsterdam Court,Amsterdam Court Hotel,YHNYCCOU,/Hotel_Review-g60763-d80075-Reviews-Amsterdam_Court_Hotel-New_York_City_New_York.html,226 West 50th Street,"226 West 50th Street, New York City, NY 10019-6702",40.76167,-73.98477
Manhattan West Hotel,Midtown West Hotel,YXNYC303,/Hotel_Review-g60763-d6701149-Reviews-Midtown_West_Hotel-New_York_City_New_York.html,303 West 30th Street,"303 W 30th St, New York City, NY 10001-2703",40.74976,-73.99539
Americana Inn,Americana Inn,YXNYCSLE,/Hotel_Review-g60763-d121981-Reviews-Americana_Inn-New_York_City_New_York.html,69 West 38th Street,"69 W 38th St, New York City, NY 10018-5512",40.75191,-73.98487
The Wall Street Inn,The Wall Street Inn,SCNYC008,/Hotel_Review-g60763-d251906-Reviews-The_Wall_Street_Inn-New_York_City_New_York.html,9 South William Street,"9 S William St, Manhattan, New York City, NY 10004-2412",40.70458,-74.01027
"Club Quarters Hotel, Wall St","Club Quarters Hotel, Wall Street",CQNYC684,/Hotel_Review-g60763-d217623-Reviews-Club_Quarters_Hotel_Wall_Street-New_York_City_New_York.html,52 William Street,"52 William St, New York City, NY 10005-2876",40.7068,-74.00899
Days Inn Hotel New York City-b,Days Inn Hotel New York City-Broadway,DINYC486,/Hotel_Review-g60763-d142114-Reviews-Days_Inn_Hotel_New_York_City_Broadway-New_York_City_New_York.html,215 West 94th Street,"215 West 94th Street, New York City, NY 10025-6922",40.79294,-73.97181
New York Marriott Downtown,New York Marriott Downtown,MCNYCWSM,/Hotel_Review-g60763-d93477-Reviews-New_York_Marriott_Downtown-New_York_City_New_York.html,85 West Street At Albany Stree,"85 West St, at Albany Street, New York City, NY 10006-1532",40.70975,-74.01468
Comfort Inn Lower East Side,Comfort Inn Lower East Side,CINYC551,/Hotel_Review-g60763-d5888246-Reviews-Comfort_Inn_Lower_East_Side-New_York_City_New_York.html,154 Madison Street,"154 Madison St, New York City, NY 10002-7004",40.71222,-73.99269
Hotel Wolcott,Wolcott Hotel,UZNYC448,/Hotel_Review-g60763-d93333-Reviews-Wolcott_Hotel-New_York_City_New_York.html,4 West 31st Street,"4 West 31st Street, Between 5th Avenue & Broadway, New York City, NY 10001-3594",40.74656,-73.98605
Manhattan Broadway Hotel,Manhattan Broadway Hotel,WVNYC062,/Hotel_Review-g60763-d122007-Reviews-Manhattan_Broadway_Hotel-New_York_City_New_York.html,273 West 38th Street,"273 W 38th St, New York City, NY 10018-4416",40.75473,-73.99106
Holiday Inn Nyc Wall Street,Holiday Inn New York City - Wall Street,HINYC596,/Hotel_Review-g60763-d1234559-Reviews-Holiday_Inn_New_York_City_Wall_Street-New_York_City_New_York.html,51 Nassau Street,"51 Nassau Street, New York City, NY 10038-4506",40.70893,-74.00902
Doubletree By Hilton Nyc Financial,DoubleTree by Hilton Hotel New York City - Financial District,DTNYC917,/Hotel_Review-g60763-d1858923-Reviews-DoubleTree_by_Hilton_Hotel_New_York_City_Financial_District-New_York_City_New_York.html,8 Stone Street,"8 Stone Street, New York City, NY 10004-2202",40.70405,-74.01259
Aloft Harlem,Aloft Harlem,ALNYC353,/Hotel_Review-g60763-d1878946-Reviews-Aloft_Harlem-New_York_City_New_York.html,2296 Frederick Douglass Blvd,"2296 Frederick Douglass Blvd, New York City, NY 10027-5324",40.80906,-73.95155
Orchard Street Hotel,Orchard Street Hotel,WVNYC109,/Hotel_Review-g60763-d7939016-Reviews-Orchard_Street_Hotel-New_York_City_New_York.html,163 Orchard Street,"163 Orchard St, New York City, NY 10002-2214",40.72117,-73.98894
Hudson River Hotel,Hudson River Hotel,GDNYCHRH,/Hotel_Review-g60763-d596200-Reviews-Hudson_River_Hotel-New_York_City_New_York.html,442 W 36th Street,"442 W 36th St, New York City, NY 10018-6344",40.75553,-73.99759
The Franklin Hotel,The Franklin,XTNYCFRA,/Hotel_Review-g60763-d93575-Reviews-The_Franklin-New_York_City_New_York.html,164 E 87th St,"164 E 87th St, Off Lexington Avenue, New York City, NY 10128-2206",40.77969,-73.95453
Best Western Bowery Hanbee Htl,Best Western Bowery Hanbee Hotel,BWNYC133,/Hotel_Review-g60763-d1060157-Reviews-Best_Western_Bowery_Hanbee_Hotel-New_York_City_New_York.html,231 Grand Street,"231 Grand Street, New York City, NY 10013-4246",40.7184,-73.99518
Holiday Inn Exp Nyc Wall St,Holiday Inn Express New York City-Wall Street,HINYC9C1,/Hotel_Review-g60763-d1465008-Reviews-Holiday_Inn_Express_New_York_City_Wall_Street-New_York_City_New_York.html,126 Water Street,"126 Water St, New York City, NY 10005-1615",40.70541,-74.00705
"Gatsby Hotel, An Ascend Hotel Collection",The Gatsby Hotel,NZNYC425,/Hotel_Review-g60763-d247814-Reviews-The_Gatsby_Hotel-New_York_City_New_York.html,135 East Houston Street,"135 East Houston Street, New York City, NY 10002-1018",40.72385,-73.99147
Courtyard Wtc Area Marriott,Courtyard New York Downtown Manhattan / World Trade Center Area,CYNYCXMC,/Hotel_Review-g60763-d9761545-Reviews-Courtyard_New_York_Downtown_Manhattan_World_Trade_Center_Area-New_York_City_New_York.html,133 Greenwich Street,"133 Greenwich Street, New York City, NY 10006-1507",40.70933,-74.01266
Dylan Hotel,Dylan Hotel NYC,PWNYCDYL,/Hotel_Review-g60763-d217622-Reviews-Dylan_Hotel_NYC-New_York_City_New_York.html,52 E 41st St,"52 E 41st St, New York City, NY 10017-6211",40.75192,-73.97937
Eurostars Wall Street,Eurostars Wall Street,LEJFK129,/Hotel_Review-g60763-d1164645-Reviews-Eurostars_Wall_Street-New_York_City_New_York.html,129 Front Street,"129 Front St, New York City, NY 10005-1636",40.70523,-74.00633
Cosmopolitan Now The Frederick,The Frederick Hotel,BTNYC7A3,/Hotel_Review-g60763-d93351-Reviews-The_Frederick_Hotel-New_York_City_New_York.html,95 West Broadway,"95 West Broadway, At Chambers Street, New York City, NY 10007-1151",40.71494,-74.00969
Aloft Manhattan Downtown Financial Dist,Aloft Manhattan Downtown Financial District,ALNYC647,/Hotel_Review-g60763-d7605857-Reviews-Aloft_Manhattan_Downtown_Financial_District-New_York_City_New_York.html,49 53 Ann Street,"49 Ann St # 53, New York City, NY 10038-2409",40.71029,-74.0069
Millennium Hilton New York Downtown,Millennium Hilton New York Downtown,HHNYC402,/Hotel_Review-g60763-d262330-Reviews-Millennium_Hilton_New_York_Downtown-New_York_City_New_York.html,55 Church Street,"55 Church Street, New York City, NY 10007-2939",40.71153,-74.01054
Hampton Inn Manhattan Seaport,Hampton Inn Manhattan-Seaport-Financial District,HXNYC320,/Hotel_Review-g60763-d277882-Reviews-Hampton_Inn_Manhattan_Seaport_Financial_District-New_York_City_New_York.html,320 Pearl St,"320 Pearl St, New York City, NY 10038-1604",40.70906,-74.00199
Residence Inn Downtwn Marriott,Residence Inn New York Downtown Manhattan/World Trade Center Area,RCNYCRLR,/Hotel_Review-g60763-d7182804-Reviews-Residence_Inn_New_York_Downtown_Manhattan_World_Trade_Center_Area-New_York_City_New_Yor.html,170 Broadway,"170 Broadway, at 4 Maiden Lane adjacent to the Gap, New York City, NY 10038-4154",40.70953,-74.00981
Hotel Mulberry,Hotel Mulberry,YXNYC633,/Hotel_Review-g60763-d1791248-Reviews-Hotel_Mulberry-New_York_City_New_York.html,52 Mulberry Street,"52 Mulberry St, New York City, NY 10013-4315",40.71541,-73.99948
Four Points New York Downtown,Four Points by Sheraton New York Downtown,SINYC642,/Hotel_Review-g60763-d7595213-Reviews-Four_Points_by_Sheraton_New_York_Downtown-New_York_City_New_York.html,6 Platt Street,"6 Platt St, New York City, NY 10038-4807",40.70747,-74.0062
World Center Hotel,World Center Hotel,YXNYCWCH,/Hotel_Review-g60763-d1553789-Reviews-World_Center_Hotel-New_York_City_New_York.html,144 Washington Street,"144 Washington Street, New York City, NY 10006-1030",40.70989,-74.0138
Fairfield Inn Financl Marriott,Fairfield Inn New York Manhattan/Financial District,FNNYCLMF,/Hotel_Review-g60763-d6877735-Reviews-Fairfield_Inn_New_York_Manhattan_Financial_District-New_York_City_New_York.html,161 Front Street,"161 Front Street, New York City, NY 10038",40.70604,-74.00502
Sheraton Tribeca New York Htl,Sheraton Tribeca New York Hotel,SINYC052,/Hotel_Review-g60763-d1783324-Reviews-Sheraton_Tribeca_New_York_Hotel-New_York_City_New_York.html,370 Canal Street,"370 Canal Street, New York City, NY 10013-2206",40.7212,-74.0042
Nomo Soho Lifestyle,NOMO SOHO Hotel,PHNYCNMS,/Hotel_Review-g60763-d1786395-Reviews-NOMO_SOHO_Hotel-New_York_City_New_York.html,9 Crosby Street,"9 Crosby Street, New York City, NY 10013",40.71988,-74.00015
Soho Grand Hotel,Soho Grand Hotel,GGNYCSGH,/Hotel_Review-g60763-d93561-Reviews-Soho_Grand_Hotel-New_York_City_New_York.html,310 West Broadway,"310 West Broadway, New York City, NY 10013-2225",40.7217,-74.00445
The James New York Soho,The James New York - SoHo,NYNYCTJA,/Hotel_Review-g60763-d1785018-Reviews-The_James_New_York_SoHo-New_York_City_New_York.html,27 Grand Street,"27 Grand St., New York City, NY 10013-1618",40.719,-73.99646
The Sohotel,Sohotel,YXNYCH06,/Hotel_Review-g60763-d292140-Reviews-Sohotel-New_York_City_New_York.html,341 Broome St,"341 Broome St, New York City, NY 10013-4236",40.71954,-73.99457
Arlo Soho,Arlo SoHo,CKNYCTHS,/Hotel_Review-g60763-d7891458-Reviews-Arlo_SoHo-New_York_City_New_York.html,231 Hudson Street,"231 Hudson St, New York City, NY 10013-1412",40.72453,-74.00821
Hampton Inn Manhattan-downtown-financial,Hampton Inn Manhattan / Downtown - Financial District,HXNYC432,/Hotel_Review-g60763-d3580899-Reviews-Hampton_Inn_Manhattan_Downtown_Financial_District-New_York_City_New_York.html,32 Pearl St,"32 Pearl St, New York City, NY 10004-2111",40.70312,-74.01228
Hilton Grdn Inn Financial Ctr Manhattan,Hilton Garden Inn NYC Financial Center/Manhattan Downtown,GINYC774,/Hotel_Review-g60763-d12297961-Reviews-Hilton_Garden_Inn_NYC_Financial_Center_Manhattan_Downtown-New_York_City_New_York.html,6 Water Street,"6 Water Street, New York City, NY 10004",40.70283,-74.01218
The Ritz-carlton Battery Park,"The Ritz-Carlton New York, Battery Park",RZNYCRDZ,/Hotel_Review-g60763-d222959-Reviews-The_Ritz_Carlton_New_York_Battery_Park-New_York_City_New_York.html,2 West Street,"2 West St, New York City, NY 10004-1074",40.70557,-74.01739
Dbltree Metropolitan Nyc,Doubletree Hotel Metropolitan - New York City,DTNYC601,/Hotel_Review-g60763-d93466-Reviews-Doubletree_Hotel_Metropolitan_New_York_City-New_York_City_New_York.html,569 Lexington Avenue,"569 Lexington Ave, at East 51st Street, New York City, NY 10022-7562",40.75694,-73.97205
Grand Hyatt New York,Grand Hyatt New York,HYNYCHNY,/Hotel_Review-g60763-d93450-Reviews-Grand_Hyatt_New_York-New_York_City_New_York.html,109 East 42nd St,"109 East 42nd Street, Park Avenue at Grand Central Terminal, New York City, NY 10017-8500",40.75204,-73.97672
Wellington Hotel,Wellington Hotel,YXNYCWEL,/Hotel_Review-g60763-d99307-Reviews-Wellington_Hotel-New_York_City_New_York.html,871 7the Avenue @55th Street,"871 7th Avenue at W 55th St, New York City, NY 10019",40.76456,-73.98038
Nylo New York City,NYLO New York City,XTNYC178,/Hotel_Review-g60763-d99288-Reviews-NYLO_New_York_City-New_York_City_New_York.html,2178 Broadway,"2178 Broadway, at W 77th Street, New York City, NY 10024-6647",40.7823,-73.98071
The New Yorker A Wyndham Hotel,The New Yorker A Wyndham Hotel,WYNYC542,/Hotel_Review-g60763-d122005-Reviews-The_New_Yorker_A_Wyndham_Hotel-New_York_City_New_York.html,481 8th Avenue,"481 8TH Avenue, New York City, NY 10001-1809",40.75273,-73.99364
Pod 51 Hotel,Pod 51 Hotel,OKNYCP51,/Hotel_Review-g60763-d93358-Reviews-Pod_51_Hotel-New_York_City_New_York.html,230 East 51st Street,"230 East 51st Street, New York City, NY 10022-6571",40.75609,-73.96959
Hilton Garden Inn Times Square,Hilton Garden Inn Times Square,GINYC790,/Hotel_Review-g60763-d99352-Reviews-Hilton_Garden_Inn_Times_Square-New_York_City_New_York.html,790 Eighth Avenue,"790 Eighth Avenue, New York City, NY 10019-7568",40.76106,-73.98703
New York Hilton Midtown,New York Hilton Midtown,HHNYC507,/Hotel_Review-g60763-d611947-Reviews-New_York_Hilton_Midtown-New_York_City_New_York.html,1335 Avenue Of The Americas,"1335 Avenue of the Americas, 6th Avenue at 54th Street, New York City, NY 10019-6078",40.76206,-73.97899
Hotel Beacon,Hotel Beacon,YXNYC222,/Hotel_Review-g60763-d93338-Reviews-Hotel_Beacon-New_York_City_New_York.html,2130 Broadway At 75th,"2130 Broadway at 75th Street, New York City, NY 10023",40.77935,-73.97736
Hilton New York Grand Central,Hilton New York Grand Central,HHNYC986,/Hotel_Review-g60763-d93339-Reviews-Hilton_New_York_Grand_Central-New_York_City_New_York.html,304 East 42nd Street,"E 42nd St, New York City, NY 10017-5905",40.74911,-73.9721
The Time New York,The Time New York,DZNYCTHN,/Hotel_Review-g60763-d112062-Reviews-The_Time_New_York-New_York_City_New_York.html,224 West 49th Street,"224 W 49th St, New York City, NY 10019-7405",40.76097,-73.98551
The London Nyc,The London NYC,CNNYC151,/Hotel_Review-g60763-d630409-Reviews-The_London_NYC-New_York_City_New_York.html,151 West 54th Street,"151 West 54th Street, New York City, NY 10019-5302",40.76357,-73.9807
Dream Downtown,Dream Downtown,DZNYCDDT,/Hotel_Review-g60763-d2173604-Reviews-Dream_Downtown-New_York_City_New_York.html,355 West 16th Street,"355 West 16th Street, Near 9th Ave, New York City, NY 10011-5902",40.74178,-74.0031
Millennium Hilton New York One Un Plaza,Millennium Hilton New York One UN Plaza,HHNYCHUN,/Hotel_Review-g60763-d209382-Reviews-Millennium_Hilton_New_York_One_UN_Plaza-New_York_City_New_York.html,1 United Nations Plaza,"One United Nations Plaza, 44th Street, New York City, NY 10017-3515",40.75056,-73.96953
Jw Marriott Essex House,JW Marriott Essex House New York,MCNYCEXM,/Hotel_Review-g60763-d455186-Reviews-JW_Marriott_Essex_House_New_York-New_York_City_New_York.html,160 Central Park South,"160 Central Park S, New York City, NY 10019-1502",40.76545,-73.97671
The Jewel Hotel,The Jewel facing Rockefeller Center,YXNYCJNY,/Hotel_Review-g60763-d1913413-Reviews-The_Jewel_facing_Rockefeller_Center-New_York_City_New_York.html,11 West 51st Street,"11 West 51 Street, New York City, NY 10019-6994",40.75979,-73.97763
Hotel Mela,Hotel Mela,XTNYC088,/Hotel_Review-g60763-d612263-Reviews-Hotel_Mela-New_York_City_New_York.html,120 West 44th St,"120 West 44th St, New York City, NY 10036-4050",40.75639,-73.98434
Distrikt Hotel Nyc - Times Squ,Distrikt Hotel New York City,PWNYC424,/Hotel_Review-g60763-d1503474-Reviews-Distrikt_Hotel_New_York_City-New_York_City_New_York.html,342 West 40th Street,"342 West 40th Street, New York City, NY 10018-1404",40.7566,-73.99287
La Quinta Inn Ste Brooklyn East,La Quinta Inn & Suites Brooklyn East,LQNYC571,/Hotel_Review-g60827-d8595091-Reviews-La_Quinta_Inn_Suites_Brooklyn_East-Brooklyn_New_York.html,1412 Pitkin Ave,"1412 Pitkin Ave, Brooklyn, NY 11233-5110",40.66834,-73.92039
Comfort Inn Staten Island,Comfort Inn Staten Island,CIEWR470,/Hotel_Review-g48682-d1204391-Reviews-Comfort_Inn_Staten_Island-Staten_Island_New_York.html,310 Wild Avenue,"310 Wild Ave, Staten Island, NY 10314-4710",40.58743,-74.191
Best Western Jfk Airport Hotel,Best Western JFK Airport Hotel,BWJFK119,/Hotel_Review-g47962-d268513-Reviews-Best_Western_JFK_Airport_Hotel-Jamaica_Queens_New_York.html,14425 153rd Lane,"14425 153rd Ln, Jamaica, NY 11434-4203",40.66617,-73.78498
Courtyard Tarrytown Marriott,Courtyard by Marriott Tarrytown Westchester County,CYHPNGRC,/Hotel_Review-g48720-d93838-Reviews-Courtyard_by_Marriott_Tarrytown_Westchester_County-Tarrytown_New_York.html,475 White Plains Rd,"475 White Plains Rd, Tarrytown, NY 10591-4904",41.0633,-73.84412
Best Western Plus Morristown,Best Western Plus Morristown Inn,BWMMU016,/Hotel_Review-g60906-d75921-Reviews-Best_Western_Plus_Morristown_Inn-Morristown_Morris_County_New_Jersey.html,270 South Street,"270 South St, Morristown, NJ 07960-6019",40.78703,-74.46944
Marco Laguardia Lexington,Marco LaGuardia Hotel by Lexington,YXLGA432,/Hotel_Review-g47729-d601474-Reviews-Marco_LaGuardia_Hotel_by_Lexington-Flushing_Queens_New_York.html,13707 Northern Blvd,"13707 Northern Blvd, Flushing, NY 11354-4116",40.76355,-73.83101
The William Vale,The William Vale,YXNYCWVH,/Hotel_Review-g60827-d8738248-Reviews-The_William_Vale-Brooklyn_New_York.html,111 North 12 Street,"111 North 12th Street, Brooklyn, NY 11249",40.72229,-73.95668
Laguardia Plaza Hotel,LaGuardia Plaza Hotel - New York,WWLGAE65,/Hotel_Review-g47626-d93644-Reviews-LaGuardia_Plaza_Hotel_New_York-East_Elmhurst_Queens_New_York.html,104-04 Dilmars Blvd,"10404 Ditmars Blvd, East Elmhurst, NY 11369-1665",40.76751,-73.86622
Days Inn Marine Park,Days Inn Brooklyn Borough Park,DINYC986,/Hotel_Review-g60827-d12579252-Reviews-Days_Inn_Brooklyn_Borough_Park-Brooklyn_New_York.html,1766 East 49th Street,"1766 East 49th Street, Brooklyn, NY 11234",40.61752,-73.9278
Hilton Brooklyn New York,Hilton Brooklyn New York,HHNYC554,/Hotel_Review-g60827-d10184216-Reviews-Hilton_Brooklyn_New_York-Brooklyn_New_York.html,140 Schermerhorn Street,"140 Schermerhorn St, Brooklyn, NY 11201-5987",40.6898,-73.9882
Crowne Plaza Jfk Airport Nyc,Crowne Plaza JFK Airport New York City,CPNYC58E,/Hotel_Review-g47962-d4786615-Reviews-Crowne_Plaza_JFK_Airport_New_York_City-Jamaica_Queens_New_York.html,138-10 135th Avenue,"13810 135th Ave, Jamaica, NY 11436-2102",40.66776,-73.79924
Bw Queens Court Hotel,Best Western Queens Court Hotel,BWNYC111,/Hotel_Review-g47729-d249780-Reviews-Best_Western_Queens_Court_Hotel-Flushing_Queens_New_York.html,133-51 39th Avenue,"13351 39th Ave, Flushing, NY 11354-4432",40.75938,-73.83344
The Ritz-carlton Westchester,"The Ritz-Carlton New York, Westchester",RZNYCRWZ,/Hotel_Review-g48883-d910070-Reviews-The_Ritz_Carlton_New_York_Westchester-White_Plains_New_York.html,3 Renaissance Square,"3 Renaissance Square, White Plains, NY 10601-3001",41.03288,-73.76729
1 Hotel Brooklyn Bridge,1 Hotel Brooklyn Bridge,BINYCHBB,/Hotel_Review-g60827-d10421761-Reviews-1_Hotel_Brooklyn_Bridge-Brooklyn_New_York.html,60 Furman Street,"60 Furman St, Brooklyn, NY 11201-1325",40.70224,-73.99554
Hltn Grdn Inn Long Island City,Hilton Garden Inn Long Island City Queensboro Bridge,GIISP963,/Hotel_Review-g48080-d7202189-Reviews-Hilton_Garden_Inn_Long_Island_City_Queensboro_Bridge-Long_Island_City_Queens_New_York.html,29 21 41st Avenue,"29-21 41st Avenue, Long Island City, NY 11101",40.75027,-73.93688
Comfort Inn Long Island City,Comfort Inn,CILGA265,/Hotel_Review-g48080-d281640-Reviews-Comfort_Inn-Long_Island_City_Queens_New_York.html,42-24 Crescent St.,"4224 Crescent St, Long Island City, NY 11101-4217",40.7494,-73.94167
La Quinta Inn Ste Brooklyn Central,La Quinta Inn & Suites Brooklyn Central,LQNYC570,/Hotel_Review-g60827-d12064061-Reviews-La_Quinta_Inn_Suites_Brooklyn_Central-Brooklyn_New_York.html,1229 Atlantic Avenue,"1229 Atlantic Ave., Brooklyn, NY 11216",40.67861,-73.95014
Days Inn Brooklyn Crown Height,Days inn Brooklyn Crown Heights,DIJFK196,/Hotel_Review-g60827-d12280686-Reviews-Days_inn_Brooklyn_Crown_Heights-Brooklyn_New_York.html,1691 East New York Ave,"1691 East New York Ave, Brooklyn, NY 11212",40.6747,-73.90581
Aloft Long Island City,Aloft Long Island City - Manhattan View,ALNYC940,/Hotel_Review-g48080-d11642010-Reviews-Aloft_Long_Island_City_Manhattan_View-Long_Island_City_Queens_New_York.html,27-45 Jackson Avenue,"2745 Jackson Ave, Long Island City, NY 11101-2917",40.7485,-73.93989
Hampton Inn Carlstadt At The,Hampton Inn Carlstadt-At The Meadowlands,HXEWRGH3,/Hotel_Review-g46344-d98355-Reviews-Hampton_Inn_Carlstadt_At_The_Meadowlands-Carlstadt_New_Jersey.html,304 Paterson Plank Rd,"304 Paterson Plank Rd, Carlstadt, NJ 07072-2309",40.82459,-74.07419
Hotel De Point,Hotel de Point,SCNYC565,/Hotel_Review-g47729-d2725750-Reviews-Hotel_de_Point-Flushing_Queens_New_York.html,20 07 127th Street,"2007 127th St, Flushing, NY 11356-2321",40.76357,-73.83004
Howard Johnson Long Island Cit,Howard Johnson Long Island City,HJLGA294,/Hotel_Review-g48080-d7106532-Reviews-Howard_Johnson_Long_Island_City-Long_Island_City_Queens_New_York.html,38-61 12th Street,"3861 12th St, Long Island City, NY 11101-6115",40.75685,-73.94198
Hilton Garden Inn Lakewood,Hilton Garden Inn Lakewood,GIEWR732,/Hotel_Review-g46550-d1147051-Reviews-Hilton_Garden_Inn_Lakewood-Lakewood_New_Jersey.html,1885 Route 70,"1885 Highway 70, Lakewood, NJ 08701-7394",40.05561,-74.16099
Best Western Premier Nyc Gtwy,Best Western Premier NYC Gateway Hotel,BWEWR068,/Hotel_Review-g46679-d12012479-Reviews-Best_Western_Premier_NYC_Gateway_Hotel-North_Bergen_New_Jersey.html,2650 Paterson Plank Road,"2650 Paterson Plank Road, North Bergen, NJ 7047",40.77352,-74.04004
Marriott At Brooklyn Bridge,New York Marriott at the Brooklyn Bridge,MCLGABKM,/Hotel_Review-g60827-d99466-Reviews-New_York_Marriott_at_the_Brooklyn_Bridge-Brooklyn_New_York.html,333 Adams Street,"333 Adams St, Brooklyn, NY 10036-1520",40.69384,-73.98916
Laguardia Airport Marriott,New York LaGuardia Airport Marriott,MCLGAAPM,/Hotel_Review-g47626-d93649-Reviews-New_York_LaGuardia_Airport_Marriott-East_Elmhurst_Queens_New_York.html,102-05 Ditmars Blvd,"10205 Ditmars Blvd, East Elmhurst, NY 11369-1327",40.76901,-73.86847
The Boro Hotel,Boro Hotel,WVLGA177,/Hotel_Review-g48080-d7792565-Reviews-Boro_Hotel-Long_Island_City_Queens_New_York.html,38-28 27th  Street,"3828 27th St, 39th Avenue & 38th Avenue, Long Island City, NY 11101-2702",40.75507,-73.93541
Hampton Stes Yonkers,Hampton Inn & Suites Yonkers,HXNYC160,/Hotel_Review-g48922-d1438838-Reviews-Hampton_Inn_Suites_Yonkers-Yonkers_New_York.html,160 Corporate Blvd,"160 Corporate Dr, Yonkers, NY 10701-6813",40.97164,-73.8785
Residence Inn Bronx Marriott,Residence Inn By Marriott New York The Bronx at Metro Center Atrium,RCNYCBXR,/Hotel_Review-g47369-d7356250-Reviews-Residence_Inn_By_Marriott_New_York_The_Bronx_at_Metro_Center_Atrium-Bronx_New_York.html,1776 Eastchester Road,"1776 Eastchester Road, Bronx, NY 10461",40.84944,-73.84269
Holiday Inn Jfk Airport Area,Holiday Inn New York JFK Airport Area,HINYCEED,/Hotel_Review-g47962-d4556188-Reviews-Holiday_Inn_New_York_JFK_Airport_Area-Jamaica_Queens_New_York.html,154-71 Brookville Boulevard Rosedal,"154-71 Brookville Boulevard Rosedale, Jamaica, NY 11422",40.7211,-73.81777
Paper Factory Hotel,The Paper Factory Hotel,WVLGA097,/Hotel_Review-g48080-d5523553-Reviews-The_Paper_Factory_Hotel-Long_Island_City_Queens_New_York.html,37 06 36th Street,"3706 36th St, Long Island City, NY 11101-1604",40.76236,-73.92444
Hampton Inn Ste Staten Island,Hampton Inn & Suites Staten Island,HXEWR112,/Hotel_Review-g48682-d674311-Reviews-Hampton_Inn_Suites_Staten_Island-Staten_Island_New_York.html,1120 South Avenue,"1120 South Ave, Staten Island, NY 10314-3410",40.61305,-74.17509
Best Western Viana Hotel & Spa,"Viana Hotel & Spa, BW Premier Collection",BWNYC173,/Hotel_Review-g48864-d1732477-Reviews-Viana_Hotel_Spa_BW_Premier_Collection-Westbury_Long_Island_New_York.html,3998 Brush Hollow Rd,"3998 Brush Hollow Road, Westbury, NY 11590",40.77607,-73.55988
Hyatt Regency Jersey City On The Hudson,Hyatt Regency Jersey City,HYEWRHJC,/Hotel_Review-g46531-d246778-Reviews-Hyatt_Regency_Jersey_City-Jersey_City_New_Jersey.html,Two Exchange Pl,"2 Exchange Pl, Jersey City, NJ 07302-3901",40.71708,-74.03247
Holiday Inn Express Maspeth,Holiday Inn Express Queens - Maspeth,HIJFK816,/Hotel_Review-g48127-d675089-Reviews-Holiday_Inn_Express_Queens_Maspeth-Maspeth_Queens_New_York.html,59-40 55th Road,"5940 55th Rd, Maspeth, NY 11378",40.72659,-73.90645
Best Western Plus Laguardia Airport,Best Western Plus La Guardia Airport Hotel Queens,BWNYC160,/Hotel_Review-g47542-d8449731-Reviews-Best_Western_Plus_La_Guardia_Airport_Hotel_Queens-Corona_Queens_New_York.html,112-26 Roosevelt Ave,"112-26 Roosevelt Avenue, Corona, NY 11368-2624",40.7521,-73.85393
Galaxy Motel,Galaxy Motel,YXNYC020,/Hotel_Review-g60827-d548331-Reviews-Galaxy_Motel-Brooklyn_New_York.html,860 Pennsylvania Ave,"860 Pennsylvania Ave, Brooklyn, NY 11207-8422",40.65665,-73.88932
Even Hotel Brooklyn,EVEN Hotel Brooklyn,VNNYCF62,/Hotel_Review-g60827-d10134568-Reviews-EVEN_Hotel_Brooklyn-Brooklyn_New_York.html,46 Nevins St,"46 Nevins St, Brooklyn, NY 11217-1020",40.68745,-73.98179
Holiday Inn Exp Staten Islnd W,Holiday Inn Express Staten Island West,HINYCC4E,/Hotel_Review-g48682-d1212524-Reviews-Holiday_Inn_Express_Staten_Island_West-Staten_Island_New_York.html,300 Wild Avenue,"300 Wild Ave, Staten Island, NY 10314-4710",40.58756,-74.19089
Sleep Inn Jfk Airport Rockaway Blvd,Sleep Inn JFK Airport Rockaway Blvd,SZJFK394,/Hotel_Review-g47962-d3225269-Reviews-Sleep_Inn_JFK_Airport_Rockaway_Blvd-Jamaica_Queens_New_York.html,153-75 Rockaway Blvd,"15375 Rockaway Blvd, Jamaica, NY 11434-3635",40.66881,-73.78179
Hampton Inn South Plainfield,Hampton Inn South Plainfield-Piscataway,HXEWR205,/Hotel_Review-g46835-d606714-Reviews-Hampton_Inn_South_Plainfield_Piscataway-South_Plainfield_New_Jersey.html,205 New World Way,"205 New World Way, South Plainfield, NJ 07080-1141",40.55618,-74.43223
Extended Stay America Lga Air,Extended Stay America - New York City - Laguardia Airport,EALGA651,/Hotel_Review-g48887-d277897-Reviews-Extended_Stay_America_New_York_City_Laguardia_Airport-Whitestone_Queens_New_York.html,18 30 Whitestone Expressway,"1830 Whitestone Expy, Whitestone, NY 11357-3061",40.7856,-73.8113
Fairfield Inn Ny Jfk Marriott,Fairfield Inn New York JFK Airport,FNJFKJJF,/Hotel_Review-g47962-d238137-Reviews-Fairfield_Inn_New_York_JFK_Airport-Jamaica_Queens_New_York.html,156-08 Rockaway Blvd,"15608 Rockaway Blvd, Jamaica, NY 11434-4844",40.66632,-73.77945
Four Points Long Island City,Four Points by Sheraton Long Island City Queensboro Bridge,SINYC540,/Hotel_Review-g48080-d1879003-Reviews-Four_Points_by_Sheraton_Long_Island_City_Queensboro_Bridge-Long_Island_City_Queens_New_.html,27 05 39th Avenue,"2705 39th Ave, Long Island City, NY 11101-2703",40.75445,-73.93581
Holiday Inn Brooklyn Downtown,Holiday Inn Brooklyn Downtown,HINYCB36,/Hotel_Review-g60827-d7789170-Reviews-Holiday_Inn_Brooklyn_Downtown-Brooklyn_New_York.html,300 Schermerhorn Road,"300 Schermerhorn St, Brooklyn, NY 11217-1005",40.68739,-73.98265
Howard Johnson Express Inn Bro,Howard Johnson Express Inn Bronx,HJLGA826,/Hotel_Review-g47369-d286866-Reviews-Howard_Johnson_Express_Inn_Bronx-Bronx_New_York.html,1922 Boston Road,"1922 Boston Rd, I-95 Exit 4B, Bronx, NY 10460-4423",40.83973,-73.88132
Nu Hotel Brooklyn,NU Hotel,XTNYC335,/Hotel_Review-g60827-d1103707-Reviews-NU_Hotel-Brooklyn_New_York.html,85 Smith St,"85 Smith St, Brooklyn, NY 11201-5907",40.68886,-73.98893
The Parc Hotel,The Parc Hotel,YXNYCTPH,/Hotel_Review-g47729-d5544308-Reviews-The_Parc_Hotel-Flushing_Queens_New_York.html,39 16 College Point Blvd,"3916 College Point Blvd, Flushing, NY 11354-5138",40.76113,-73.83524
Ravel Hotel,Ravel Hotel,YXLGA796,/Hotel_Review-g48080-d1026626-Reviews-Ravel_Hotel-Long_Island_City_Queens_New_York.html,8-08 Queens Plaza South,"808 Queens Plz S, Long Island City, NY 11101-4915",40.754,-73.94925
Hyatt Place Long Island-new York City,Hyatt Place Long Island City / New York City,HYLGAZL2,/Hotel_Review-g48080-d12596548-Reviews-Hyatt_Place_Long_Island_City_New_York_City-Long_Island_City_Queens_New_York.html,2707 43rd Ave,"2707 43rd Ave, Long Island City, NY 11101",40.74817,-73.94127
Cambria Hotel White Plains,Cambria hotel & suites White Plains - Downtown,EZHPN547,/Hotel_Review-g48883-d4757879-Reviews-Cambria_hotel_suites_White_Plains_Downtown-White_Plains_New_York.html,250 Main Street,"250 Main St, White Plains, NY 10601-2445",41.03326,-73.76424
The One Boutique Hotel,The One Boutique Hotel,YXNYCTOB,/Hotel_Review-g47729-d6548502-Reviews-The_One_Boutique_Hotel-Flushing_Queens_New_York.html,137 72 Northern Blvd,"137-72 Northern Blvd, Flushing, NY 11354-4122",40.7635,-73.82844
Hotel Rl By Red Lion Brooklyn,Hotel RL by Red Lion Brooklyn,RLJFK964,/Hotel_Review-g60827-d11726197-Reviews-Hotel_RL_by_Red_Lion_Brooklyn-Brooklyn_New_York.html,1080 Broadway,"1080 Broadway, Brooklyn, NY 11221-3014",40.69437,-73.93107
"Homewood Carle Place - Garden City, Ny",Homewood Suites by Hilton Carle Place - Garden City,HGNYC525,/Hotel_Review-g47413-d4063937-Reviews-Homewood_Suites_by_Hilton_Carle_Place_Garden_City-Carle_Place_Long_Island_New_York.html,40 Westbury Avenue,"40 Westbury Ave, Carle Place, NY 11514-1521",40.74948,-73.61923
Hampton Inn New York-jfk Arpt,Hampton Inn NY - JFK,HXNYC144,/Hotel_Review-g47962-d224601-Reviews-Hampton_Inn_NY_JFK-Jamaica_Queens_New_York.html,144 10 135th Ave,"144-10 135th Ave, Jamaica, NY 11436-2200",40.66746,-73.79487
Best Western Plus Arena Hotel,Best Western Plus Arena Hotel,BWJFK142,/Hotel_Review-g60827-d1762669-Reviews-Best_Western_Plus_Arena_Hotel-Brooklyn_New_York.html,1324 Atlantic Avenue,"1324 Atlantic Avenue, Brooklyn, NY 11216-2811",40.67837,-73.94654
Hotel Le Jolie,Hotel Le Jolie,WVLGAHLJ,/Hotel_Review-g60827-d1007626-Reviews-Hotel_Le_Jolie-Brooklyn_New_York.html,235 Meeker Avenue,"235 Meeker Ave, Brooklyn, NY 11211-1244",40.71631,-73.95086
Quality Inn Long Island City,Quality Inn Long Island City,QILGA400,/Hotel_Review-g48080-d671388-Reviews-Quality_Inn_Long_Island_City-Long_Island_City_Queens_New_York.html,30-03 40th Avenue,"3003 40th Ave, Long Island City, NY 11101-2811",40.75163,-73.93385
Hampton Inn Garden City,Hampton Inn Garden City,HXNYC100,/Hotel_Review-g47770-d623576-Reviews-Hampton_Inn_Garden_City-Garden_City_Long_Island_New_York.html,1 North Ave,"1 North Ave, Garden City, NY 11530-2125",40.74123,-73.60953
"Gowanus Inn And Yard, An Ascend Hotel Co",Gowanus Inn and Yard,NZNYC569,/Hotel_Review-g60827-d12221584-Reviews-Gowanus_Inn_and_Yard-Brooklyn_New_York.html,645-651 Union St.,"645-651 Union St., Brooklyn, NY 11217",40.67784,-73.98345
Ramada Long Island City,Ramada Long Island City,RALGA433,/Hotel_Review-g48080-d1484593-Reviews-Ramada_Long_Island_City-Long_Island_City_Queens_New_York.html,38-30 Crescent Street,"3830 Crescent St, Long Island City, NY 11101-3602",40.75482,-73.93677
Fairfield Inn Li City Marriott,Fairfield Inn New York Long Island City / Manhattan View,FNNYCFQF,/Hotel_Review-g48080-d1027681-Reviews-Fairfield_Inn_New_York_Long_Island_City_Manhattan_View-Long_Island_City_Queens_New_York.html,52-34 Van Dam Street,"52-34 Van Dam Street, Long Island City, NY 11101",40.7368,-73.93564
Ramada Staten Island,Ramada Staten Island,RANYC951,/Hotel_Review-g48682-d1819763-Reviews-Ramada_Staten_Island-Staten_Island_New_York.html,535 N Gannon Ave,"535 N Gannon Ave, Staten Island, NY 10314-4317",40.60828,-74.14617
City View Inn,City View Inn,OKLGA069,/Hotel_Review-g48080-d75617-Reviews-City_View_Inn-Long_Island_City_Queens_New_York.html,3317 Greenpoint Ave,"3317 Greenpoint Ave, Long Island City, NY 11101-2011",40.73617,-73.9342
Sleep Inn Brooklyn,Sleep Inn Brooklyn,SZLGA484,/Hotel_Review-g60827-d1235523-Reviews-Sleep_Inn_Brooklyn-Brooklyn_New_York.html,134 22nd Street,"247 49th St, Brooklyn, NY 11220-1708",40.66302,-73.99766
Best Western Jamaica Inn,Best Western Jamaica Inn,BWJFK141,/Hotel_Review-g47962-d294811-Reviews-Best_Western_Jamaica_Inn-Jamaica_Queens_New_York.html,8707 Van Wyck Expressway,"8707 Van Wyck Expy, Jamaica, NY 11435",40.70483,-73.8169
Hilton Garden Inn Staten Island,Hilton Garden Inn New York/Staten Island,GIEWR198,/Hotel_Review-g48682-d224599-Reviews-Hilton_Garden_Inn_New_York_Staten_Island-Staten_Island_New_York.html,1100 South Avenue,"1100 South Ave, Staten Island, NY 10314-3410",40.61543,-74.17328
Hilton Garden Inn Wayne,Hilton Garden Inn Wayne,GINYC564,/Hotel_Review-g46905-d7736613-Reviews-Hilton_Garden_Inn_Wayne-Wayne_New_Jersey.html,15 Nevins Road,"15 Nevins Rd, Wayne, NJ 07470-2050",40.9643,-74.2292
Mccarren Hotel And Pool,McCarren Hotel & Pool,YXNYCWIL,/Hotel_Review-g60827-d2151848-Reviews-McCarren_Hotel_Pool-Brooklyn_New_York.html,160 North 12th Street,"160 N 12th St, Brooklyn, NY 11249-1127",40.7209,-73.95543
Rodeway Inn Bronx Zoo,Rodeway Inn Bronx Zoo,RYLGA324,/Hotel_Review-g47369-d4447795-Reviews-Rodeway_Inn_Bronx_Zoo-Bronx_New_York.html,3070 72 Webster Avenue,"3070 Webster Ave # 72, Bronx, NY 10467-4918",40.87021,-73.87779
Dbltree By Hilton Jersey City,DoubleTree by Hilton Hotel & Suites Jersey City,DTEWRH70,/Hotel_Review-g46531-d98276-Reviews-DoubleTree_by_Hilton_Hotel_Suites_Jersey_City-Jersey_City_New_Jersey.html,455 Washington Blvd,"455 Washington Blvd, Jersey City, NJ 07310-1972",40.72876,-74.03503
Comfort Inn And Suites Near Stadium,Comfort Inn & Suites near Stadium,CINYC529,/Hotel_Review-g47369-d12441510-Reviews-Comfort_Inn_Suites_near_Stadium-Bronx_New_York.html,2477 Third Ave,"2477 Third Avenue, Bronx, NY 10451",40.80993,-73.92932
Ramada Inn Bronx,Ramada Bronx,RANYC038,/Hotel_Review-g47369-d99257-Reviews-Ramada_Bronx-Bronx_New_York.html,1000 Baychester Avenue,"1000 Baychester Ave, Bronx, NY 10475-4567",40.87975,-73.83186
Quality Inn,Quality Inn,QINYC634,/Hotel_Review-g60827-d7772856-Reviews-Quality_Inn-Brooklyn_New_York.html,4410 3rd Ave,"95 Chester Street, Brooklyn, NY 11212-5642",40.65088,-74.01161
Homewood Suites Mahwah Nj,Homewood Suites by Hilton Mahwah,HGEWR375,/Hotel_Review-g46590-d224606-Reviews-Homewood_Suites_by_Hilton_Mahwah-Mahwah_New_Jersey.html,375 Corporate Dr,"375 Corporate Dr, Mahwah, NJ 07430-2012",41.087,-74.15649
The Look Hotel Red Hook An Ascend Hotel,"The LOOK hotel, Red Hook, an Ascend Hotel Collection Member",NZLGA507,/Hotel_Review-g60827-d2309186-Reviews-The_LOOK_hotel_Red_Hook_an_Ascend_Hotel_Collection_Member-Brooklyn_New_York.html,17 Seabring Street,"17 Seabring Street, Brooklyn, NY 11231-1820",40.68005,-74.00593
Opera House Hotel,Opera House Hotel,YXLGA107,/Hotel_Review-g47369-d4702280-Reviews-Opera_House_Hotel-Bronx_New_York.html,436 East 149th Street,"436 E 149th St, Bronx, NY 10455-1304",40.81535,-73.91596
La Quinta Inn Ste Brooklyn Downtown,La Quinta Inn & Suites Brooklyn Downtown,LQNYC328,/Hotel_Review-g60827-d1657771-Reviews-La_Quinta_Inn_Suites_Brooklyn_Downtown-Brooklyn_New_York.html,531 3rd Avenue,"533 3rd Ave, Brooklyn, NY 11215-4623",40.66904,-73.99303
Super 8 Long Island City Lga H,Super 8 Long Island City LGA Hotel,OZLGA886,/Hotel_Review-g48080-d248683-Reviews-Super_8_Long_Island_City_LGA_Hotel-Long_Island_City_Queens_New_York.html,31-62 14th St,"31-62 14th St, Long Island City, NY 11106-4810",40.76634,-73.93358
Days Inn Brooklyn,Days Inn Brooklyn,DINYC759,/Hotel_Review-g60827-d295340-Reviews-Days_Inn_Brooklyn-Brooklyn_New_York.html,437 39th Street,"437 39th St, Brooklyn, NY 11232-2909",40.65209,-74.00529
Inn At Fox Hollow Hotel,The Inn At Fox Hollow Hotel,YXJFK775,/Hotel_Review-g48908-d246828-Reviews-The_Inn_At_Fox_Hollow_Hotel-Woodbury_Long_Island_New_York.html,7755 Jericho Turnpike,"7755 Jericho Tpke, Woodbury, NY 11797-1710",40.81299,-73.48519
Asiatic Hotel Laguardia East,Asiatic Hotel - Flushing,YXLGAAHL,/Hotel_Review-g47729-d3411847-Reviews-Asiatic_Hotel_Flushing-Flushing_Queens_New_York.html,135 21 37 Avenue,"13521 37th Ave, Flushing, NY 11354-4119",40.76135,-73.83237
Wythe Hotel,Wythe Hotel,WVNYCWYT,/Hotel_Review-g60827-d2556148-Reviews-Wythe_Hotel-Brooklyn_New_York.html,80 Wythe Avenue,"80 Wythe Ave, Brooklyn, NY 11249-1026",40.72189,-73.9581
Best Western Queens Gold Coast,Best Western Queens Gold Coast,BWNYC157,/Hotel_Review-g47289-d99254-Reviews-Best_Western_Queens_Gold_Coast-Bayside_Queens_New_York.html,220-33 Northern Blvd,"22033 Northern Blvd, Bayside, NY 11361-3642",40.76167,-73.76069
Comfort Inn Laguardia Airport - 83rd St,Comfort Inn LaGuardia Airport - 83rd St,CILGA392,/Hotel_Review-g47626-d1485917-Reviews-Comfort_Inn_LaGuardia_Airport_83rd_St-East_Elmhurst_Queens_New_York.html,23 45 83rd Street,"2345 83rd St, East Elmhurst, NY 11370",40.76581,-73.88615
Best Western Plus Brooklyn Bay,Best Western Plus Brooklyn Bay Hotel,BWLGA131,/Hotel_Review-g60827-d636123-Reviews-Best_Western_Plus_Brooklyn_Bay_Hotel-Brooklyn_New_York.html,3003 Emmons Avenue,"3003 Emmons Avenue, Sheepshead Bay, Brooklyn, NY 11235",40.584,-73.93862
Courtyard Jfk Airport Marriott,Courtyard by Marriott New York JFK Airport,CYJFKJFC,/Hotel_Review-g47962-d224106-Reviews-Courtyard_by_Marriott_New_York_JFK_Airport-Jamaica_Queens_New_York.html,145-11 N Conduit Ave,"14511 N Conduit Ave, Jamaica, NY 11436-2236",40.66706,-73.79304
Holiday Inn Exp Bronx Stadium,Holiday Inn Express - Bronx NYC - Stadium Area,HINYCEDE,/Hotel_Review-g47369-d12548946-Reviews-Holiday_Inn_Express_Bronx_NYC_Stadium_Area-Bronx_New_York.html,500 Exterior Street,"500 Exterior Street, Bronx, NY 10451",40.81814,-73.9304
Hyatt Place Yonkers,Hyatt Place New York/Yonkers,HYNYCYON,/Hotel_Review-g48922-d7771212-Reviews-Hyatt_Place_New_York_Yonkers-Yonkers_New_York.html,7000 Mall Walk,"7000 Mall Walk, Yonkers, NY 10704-1221",40.92781,-73.8533
Brooklyn Motor Inn,Brooklyn Motor Inn,YXJFKBMI,/Hotel_Review-g60827-d548322-Reviews-Brooklyn_Motor_Inn-Brooklyn_New_York.html,140 Hamilton Ave,"140 Hamilton Ave, Brooklyn, NY 11231-1314",40.68178,-74.00648
Days Inn Jamaica - Jfk Airport,Days Inn Jamaica - Jfk Airport,DIJFK787,/Hotel_Review-g47962-d574186-Reviews-Days_Inn_Jamaica_Jfk_Airport-Jamaica_Queens_New_York.html,144-26 153rd Court,"14426 153rd Ct, Jamaica, NY 11434-4202",40.66538,-73.78395
The Madison Hotel,The Madison Hotel,WVEWR900,/Hotel_Review-g60906-d92451-Reviews-The_Madison_Hotel-Morristown_Morris_County_New_Jersey.html,1 Convent Road And Route 124,"1 Convent Rd, Morristown, NJ 07960-6922",40.77793,-74.44504
Radisson Hotel Jfk Airport,Radisson Hotel JFK Airport,RDNYC879,/Hotel_Review-g47962-d225472-Reviews-Radisson_Hotel_JFK_Airport-Jamaica_Queens_New_York.html,135-30 140th Street,"13530 140th St, Jamaica, NY 11436-2137",40.66744,-73.7981
Ramada Flushing Queens,Ramada Flushing Queens,RALGA854,/Hotel_Review-g47729-d6563501-Reviews-Ramada_Flushing_Queens-Flushing_Queens_New_York.html,3627 Prince Street,"3627 Prince St, Flushing, NY 11354-4008",40.76156,-73.83257
Hampton Inn Brooklyn Downtown Ny,Hampton Inn Brooklyn/Downtown,HXNYC903,/Hotel_Review-g60827-d6542529-Reviews-Hampton_Inn_Brooklyn_Downtown-Brooklyn_New_York.html,125 Flatbush Extension,"125 Flatbush Avenue Ext, Brooklyn, NY 11201-2901",40.69568,-73.98396
Hotel Le Bleu,Hotel Le Bleu,WVNYCBLE,/Hotel_Review-g60827-d650459-Reviews-Hotel_Le_Bleu-Brooklyn_New_York.html,370 4th Ave,"370 4th Avenue, Brooklyn, NY 11215-2718",40.67322,-73.98699
Best Western Gregory Hotel,BEST WESTERN Gregory Hotel,BWJFK124,/Hotel_Review-g60827-d99467-Reviews-BEST_WESTERN_Gregory_Hotel-Brooklyn_New_York.html,8315 4th Avenue,"8315 4th Ave, Brooklyn, NY 11209",40.62484,-74.02764
Best Western Plaza Hotel,Best Western Plaza Hotel,BWNYC143,/Hotel_Review-g48080-d1500326-Reviews-Best_Western_Plaza_Hotel-Long_Island_City_Queens_New_York.html,3934 21st Street,"3934 21st Street, Long Island City, NY 11101",40.75607,-73.94047
The Williamsburg Hotel,The Williamsburg Hotel,YXNYCTWH,/Hotel_Review-g60827-d10728525-Reviews-The_Williamsburg_Hotel-Brooklyn_New_York.html,96 Wythe Avenue,"96 Wythe Ave, Brooklyn, NY 11249-1923",40.72161,-73.95883
Hilton Garden Inn Queens Jfk Ar,Hilton Garden Inn Queens / JFK Airport,GIJFK321,/Hotel_Review-g47962-d501354-Reviews-Hilton_Garden_Inn_Queens_JFK_Airport-Jamaica_Queens_New_York.html,148-18 134th Street,"14818 134th St, Jamaica, NY 11430-1507",40.66529,-73.80603
Wyndham Garden Fresh Meadows F,Wyndham Garden Fresh Meadows Flushing,WYLGA998,/Hotel_Review-g616325-d12165292-Reviews-Wyndham_Garden_Fresh_Meadows_Flushing-Queens_New_York.html,6127 186th Street,"6127 186th Street, NY 11365",40.7479,-73.79207
Homewood Stes East Rutherford,Homewood Suites by Hilton East Rutherford-Meadowlands,HGEWR125,/Hotel_Review-g46404-d1218811-Reviews-Homewood_Suites_by_Hilton_East_Rutherford_Meadowlands-East_Rutherford_New_Jersey.html,125 Route 17 South,"125 Route 17 South, East Rutherford, NJ 07073",40.82942,-74.09224
Aloft New York Laguardia,Aloft New York LaGuardia Airport,ALLGA121,/Hotel_Review-g47626-d12246206-Reviews-Aloft_New_York_LaGuardia_Airport-East_Elmhurst_Queens_New_York.html,100-15 Ditmars Blvd,"100-15 Ditmars Boulevard, East Elmhurst, NY 11369",40.77,-73.87009
Wyndham Garden Laguardia South,Wyndham Garden Laguardia South,WYLGA087,/Hotel_Review-g48477-d10333880-Reviews-Wyndham_Garden_Laguardia_South-Rego_Park_Queens_New_York.html,92-77 Queens Blvd,"61-18 93rd Street, Rego Park, NY 11374",40.73198,-73.86649
Holiday Inn Express Brooklyn,Holiday Inn Express Brooklyn,HIJFK47B,/Hotel_Review-g60827-d622721-Reviews-Holiday_Inn_Express_Brooklyn-Brooklyn_New_York.html,625 Union Street,"625 Union St, Brooklyn, NY 11215-1033",40.67776,-73.98396
Teaneck Marriott At Glenpointe,Teaneck Marriott at Glenpointe,MCEWRGPM,/Hotel_Review-g46862-d92633-Reviews-Teaneck_Marriott_at_Glenpointe-Teaneck_New_Jersey.html,100 Frank West Burr Boulevard,"100 Frank W Burr Blvd, Teaneck, NJ 07666-6702",40.89199,-74.01464
